TRANSPORTER-15CY        
1 66760U 25276CY  25357.01378875  .00010188  00000+0  50130-3 0  9997
2 66760  97.4400  68.6233 0001610 113.7895 246.3508 15.18191391  3685
TRANSPORTER-15CZ        
1 66761U 25276CZ  25357.07713797  .00011670  00000+0  56899-3 0  9995
2 66761  97.4399  68.6912 0001639 124.8277 235.3111 15.18474491  3699
HYDROGNSS-1             
1 66762U 25276DA  25357.15903440  .00009053  00000+0  45730-3 0  9995
2 66762  97.4408  68.7381 0000978 260.7884  99.3239 15.17306539  3708
HYDROGNSS-2             
1 66763U 25276DB  25356.43161399  .00003929  00000+0  19983-3 0  9992
2 66763  97.4416  68.0320 0001386 244.5475 115.5615 15.17420203  3595
TRANSPORTER-15DC        
1 66764U 25276DC  25357.15255875  .00009187  00000+0  45882-3 0  9995
2 66764  97.4406  68.7450 0002058 195.4176 164.6995 15.17697520  3702
TRANSPORTER-15DD        
1 66765U 25276DD  25357.13964135  .00014138  00000+0  68330-3 0  9995
2 66765  97.4424  68.7675 0001921 117.9460 242.1969 15.18733187  3709
TRANSPORTER-15DE        
1 66766U 25276DE  25357.07654056  .00011311  00000+0  55252-3 0  9996
2 66766  97.4362  68.6813 0002032  88.0903 272.0564 15.18414562  3692
TRANSPORTER-15DF        
1 66767U 25276DF  25357.07737590  .00009828  00000+0  48195-3 0  9990
2 66767  97.4371  68.6825 0002082  89.6558 270.4915 15.18317222  3691
TRANSPORTER-15DG        
1 66768U 25276DG  25357.14113418  .00012357  00000+0  60133-3 0  9993
2 66768  97.4355  68.7462 0002224  78.1887 281.9597 15.18525171  3707
TRANSPORTER-15DH        
1 66769U 25276DH  25357.14204600  .00006340  00000+0  31141-3 0  9990
2 66769  97.4418  68.7631 0002692 106.9621 253.1908 15.18403530  3702
TRANSPORTER-15DJ        
1 66770U 25276DJ  25357.14171109  .00009674  00000+0  47336-3 0  9995
2 66770  97.4450  68.7739 0003141 121.2767 238.8775 15.18396934  3701
TRANSPORTER-15DK        
1 66771U 25276DK  25357.14127339  .00010635  00000+0  51887-3 0  9997
2 66771  97.4443  68.7716 0002956 112.4527 247.7020 15.18472394  3705
