CCSDS_OMM_VERS = 2.0
CREATION_DATE  = 
ORIGINATOR     = 

OBJECT_NAME    = TRANSPORTER-15CY
OBJECT_ID      = 2025-276CY
CENTER_NAME    = EARTH
REF_FRAME      = TEME
TIME_SYSTEM    = UTC
MEAN_ELEMENT_THEORY = SGP/SGP4

EPOCH          = 2025-12-23T00:19:51.348000
MEAN_MOTION    = 15.18191391
ECCENTRICITY   = .000161
INCLINATION    = 97.4400
RA_OF_ASC_NODE = 68.6233
ARG_OF_PERICENTER = 113.7895
MEAN_ANOMALY   = 246.3508

EPHEMERIS_TYPE = 0
CLASSIFICATION_TYPE = U
NORAD_CAT_ID   = 66760
ELEMENT_SET_NO = 999
REV_AT_EPOCH   = 368
BSTAR          = .5013E-3
MEAN_MOTION_DOT = .10188E-3
MEAN_MOTION_DDOT = 0

CCSDS_OMM_VERS = 2.0
CREATION_DATE  = 
ORIGINATOR     = 

OBJECT_NAME    = TRANSPORTER-15CZ
OBJECT_ID      = 2025-276CZ
CENTER_NAME    = EARTH
REF_FRAME      = TEME
TIME_SYSTEM    = UTC
MEAN_ELEMENT_THEORY = SGP/SGP4

EPOCH          = 2025-12-23T01:51:04.720608
MEAN_MOTION    = 15.18474491
ECCENTRICITY   = .0001639
INCLINATION    = 97.4399
RA_OF_ASC_NODE = 68.6912
ARG_OF_PERICENTER = 124.8277
MEAN_ANOMALY   = 235.3111

EPHEMERIS_TYPE = 0
CLASSIFICATION_TYPE = U
NORAD_CAT_ID   = 66761
ELEMENT_SET_NO = 999
REV_AT_EPOCH   = 369
BSTAR          = .56899E-3
MEAN_MOTION_DOT = .1167E-3
MEAN_MOTION_DDOT = 0

CCSDS_OMM_VERS = 2.0
CREATION_DATE  = 
ORIGINATOR     = 

OBJECT_NAME    = HYDROGNSS-1
OBJECT_ID      = 2025-276DA
CENTER_NAME    = EARTH
REF_FRAME      = TEME
TIME_SYSTEM    = UTC
MEAN_ELEMENT_THEORY = SGP/SGP4

EPOCH          = 2025-12-23T03:49:00.572160
MEAN_MOTION    = 15.17306539
ECCENTRICITY   = .0000978
INCLINATION    = 97.4408
RA_OF_ASC_NODE = 68.7381
ARG_OF_PERICENTER = 260.7884
MEAN_ANOMALY   = 99.3239

EPHEMERIS_TYPE = 0
CLASSIFICATION_TYPE = U
NORAD_CAT_ID   = 66762
ELEMENT_SET_NO = 999
REV_AT_EPOCH   = 370
BSTAR          = .4573E-3
MEAN_MOTION_DOT = .9053E-4
MEAN_MOTION_DDOT = 0

CCSDS_OMM_VERS = 2.0
CREATION_DATE  = 
ORIGINATOR     = 

OBJECT_NAME    = HYDROGNSS-2
OBJECT_ID      = 2025-276DB
CENTER_NAME    = EARTH
REF_FRAME      = TEME
TIME_SYSTEM    = UTC
MEAN_ELEMENT_THEORY = SGP/SGP4

EPOCH          = 2025-12-22T10:21:31.448736
MEAN_MOTION    = 15.17420203
ECCENTRICITY   = .00013861
INCLINATION    = 97.4416
RA_OF_ASC_NODE = 68.0320
ARG_OF_PERICENTER = 244.5475
MEAN_ANOMALY   = 115.5615

EPHEMERIS_TYPE = 0
CLASSIFICATION_TYPE = U
NORAD_CAT_ID   = 66763
ELEMENT_SET_NO = 999
REV_AT_EPOCH   = 359
BSTAR          = .19983047E-3
MEAN_MOTION_DOT = .3929E-4
MEAN_MOTION_DDOT = 0

CCSDS_OMM_VERS = 2.0
CREATION_DATE  = 
ORIGINATOR     = 

OBJECT_NAME    = TRANSPORTER-15DC
OBJECT_ID      = 2025-276DC
CENTER_NAME    = EARTH
REF_FRAME      = TEME
TIME_SYSTEM    = UTC
MEAN_ELEMENT_THEORY = SGP/SGP4

EPOCH          = 2025-12-23T03:39:41.076000
MEAN_MOTION    = 15.17697520
ECCENTRICITY   = .0002058
INCLINATION    = 97.4406
RA_OF_ASC_NODE = 68.7450
ARG_OF_PERICENTER = 195.4176
MEAN_ANOMALY   = 164.6995

EPHEMERIS_TYPE = 0
CLASSIFICATION_TYPE = U
NORAD_CAT_ID   = 66764
ELEMENT_SET_NO = 999
REV_AT_EPOCH   = 370
BSTAR          = .45882E-3
MEAN_MOTION_DOT = .9187E-4
MEAN_MOTION_DDOT = 0

CCSDS_OMM_VERS = 2.0
CREATION_DATE  = 
ORIGINATOR     = 

OBJECT_NAME    = TRANSPORTER-15DD
OBJECT_ID      = 2025-276DD
CENTER_NAME    = EARTH
REF_FRAME      = TEME
TIME_SYSTEM    = UTC
MEAN_ELEMENT_THEORY = SGP/SGP4

EPOCH          = 2025-12-23T03:21:05.012640
MEAN_MOTION    = 15.18733187
ECCENTRICITY   = .0001921
INCLINATION    = 97.4424
RA_OF_ASC_NODE = 68.7675
ARG_OF_PERICENTER = 117.9460
MEAN_ANOMALY   = 242.1969

EPHEMERIS_TYPE = 0
CLASSIFICATION_TYPE = U
NORAD_CAT_ID   = 66765
ELEMENT_SET_NO = 999
REV_AT_EPOCH   = 370
BSTAR          = .6833E-3
MEAN_MOTION_DOT = .14138E-3
MEAN_MOTION_DDOT = 0

CCSDS_OMM_VERS = 2.0
CREATION_DATE  = 
ORIGINATOR     = 

OBJECT_NAME    = TRANSPORTER-15DE
OBJECT_ID      = 2025-276DE
CENTER_NAME    = EARTH
REF_FRAME      = TEME
TIME_SYSTEM    = UTC
MEAN_ELEMENT_THEORY = SGP/SGP4

EPOCH          = 2025-12-23T01:50:13.104384
MEAN_MOTION    = 15.18414562
ECCENTRICITY   = .0002032
INCLINATION    = 97.4362
RA_OF_ASC_NODE = 68.6813
ARG_OF_PERICENTER = 88.0903
MEAN_ANOMALY   = 272.0564

EPHEMERIS_TYPE = 0
CLASSIFICATION_TYPE = U
NORAD_CAT_ID   = 66766
ELEMENT_SET_NO = 999
REV_AT_EPOCH   = 369
BSTAR          = .55252E-3
MEAN_MOTION_DOT = .11311E-3
MEAN_MOTION_DDOT = 0

CCSDS_OMM_VERS = 2.0
CREATION_DATE  = 
ORIGINATOR     = 

OBJECT_NAME    = TRANSPORTER-15DF
OBJECT_ID      = 2025-276DF
CENTER_NAME    = EARTH
REF_FRAME      = TEME
TIME_SYSTEM    = UTC
MEAN_ELEMENT_THEORY = SGP/SGP4

EPOCH          = 2025-12-23T01:51:25.277760
MEAN_MOTION    = 15.18317222
ECCENTRICITY   = .0002082
INCLINATION    = 97.4371
RA_OF_ASC_NODE = 68.6825
ARG_OF_PERICENTER = 89.6558
MEAN_ANOMALY   = 270.4915

EPHEMERIS_TYPE = 0
CLASSIFICATION_TYPE = U
NORAD_CAT_ID   = 66767
ELEMENT_SET_NO = 999
REV_AT_EPOCH   = 369
BSTAR          = .48195E-3
MEAN_MOTION_DOT = .9828E-4
MEAN_MOTION_DDOT = 0

CCSDS_OMM_VERS = 2.0
CREATION_DATE  = 
ORIGINATOR     = 

OBJECT_NAME    = TRANSPORTER-15DG
OBJECT_ID      = 2025-276DG
CENTER_NAME    = EARTH
REF_FRAME      = TEME
TIME_SYSTEM    = UTC
MEAN_ELEMENT_THEORY = SGP/SGP4

EPOCH          = 2025-12-23T03:23:13.993152
MEAN_MOTION    = 15.18525171
ECCENTRICITY   = .0002224
INCLINATION    = 97.4355
RA_OF_ASC_NODE = 68.7462
ARG_OF_PERICENTER = 78.1887
MEAN_ANOMALY   = 281.9597

EPHEMERIS_TYPE = 0
CLASSIFICATION_TYPE = U
NORAD_CAT_ID   = 66768
ELEMENT_SET_NO = 999
REV_AT_EPOCH   = 370
BSTAR          = .60133E-3
MEAN_MOTION_DOT = .12357E-3
MEAN_MOTION_DDOT = 0

CCSDS_OMM_VERS = 2.0
CREATION_DATE  = 
ORIGINATOR     = 

OBJECT_NAME    = TRANSPORTER-15DH
OBJECT_ID      = 2025-276DH
CENTER_NAME    = EARTH
REF_FRAME      = TEME
TIME_SYSTEM    = UTC
MEAN_ELEMENT_THEORY = SGP/SGP4

EPOCH          = 2025-12-23T03:24:32.774400
MEAN_MOTION    = 15.18403530
ECCENTRICITY   = .0002692
INCLINATION    = 97.4418
RA_OF_ASC_NODE = 68.7631
ARG_OF_PERICENTER = 106.9621
MEAN_ANOMALY   = 253.1908

EPHEMERIS_TYPE = 0
CLASSIFICATION_TYPE = U
NORAD_CAT_ID   = 66769
ELEMENT_SET_NO = 999
REV_AT_EPOCH   = 370
BSTAR          = .31141E-3
MEAN_MOTION_DOT = .634E-4
MEAN_MOTION_DDOT = 0

CCSDS_OMM_VERS = 2.0
CREATION_DATE  = 
ORIGINATOR     = 

OBJECT_NAME    = TRANSPORTER-15DJ
OBJECT_ID      = 2025-276DJ
CENTER_NAME    = EARTH
REF_FRAME      = TEME
TIME_SYSTEM    = UTC
MEAN_ELEMENT_THEORY = SGP/SGP4

EPOCH          = 2025-12-23T03:24:03.838176
MEAN_MOTION    = 15.18396934
ECCENTRICITY   = .0003141
INCLINATION    = 97.4450
RA_OF_ASC_NODE = 68.7739
ARG_OF_PERICENTER = 121.2767
MEAN_ANOMALY   = 238.8775

EPHEMERIS_TYPE = 0
CLASSIFICATION_TYPE = U
NORAD_CAT_ID   = 66770
ELEMENT_SET_NO = 999
REV_AT_EPOCH   = 370
BSTAR          = .47336E-3
MEAN_MOTION_DOT = .9674E-4
MEAN_MOTION_DDOT = 0

CCSDS_OMM_VERS = 2.0
CREATION_DATE  = 
ORIGINATOR     = 

OBJECT_NAME    = TRANSPORTER-15DK
OBJECT_ID      = 2025-276DK
CENTER_NAME    = EARTH
REF_FRAME      = TEME
TIME_SYSTEM    = UTC
MEAN_ELEMENT_THEORY = SGP/SGP4

EPOCH          = 2025-12-23T03:23:26.020896
MEAN_MOTION    = 15.18472394
ECCENTRICITY   = .0002956
INCLINATION    = 97.4443
RA_OF_ASC_NODE = 68.7716
ARG_OF_PERICENTER = 112.4527
MEAN_ANOMALY   = 247.7020

EPHEMERIS_TYPE = 0
CLASSIFICATION_TYPE = U
NORAD_CAT_ID   = 66771
ELEMENT_SET_NO = 999
REV_AT_EPOCH   = 370
BSTAR          = .51887E-3
MEAN_MOTION_DOT = .10635E-3
MEAN_MOTION_DDOT = 0

